[{"OBJECT_NAME":"STARLINK-31529","OBJECT_ID":"2024-036C","EPOCH":"2026-03-09T07:02:47.727744","MEAN_MOTION":15.30193147,"ECCENTRICITY":0.00011253,"INCLINATION":53.1606,"RA_OF_ASC_NODE":77.7713,"ARG_OF_PERICENTER":89.5287,"MEAN_ANOMALY":270.5843,"EPHEMERIS_TYPE":0,"CLASSIFICATION_TYPE":"U","NORAD_CAT_ID":59000,"ELEMENT_SET_NO":999,"REV_AT_EPOCH":11521,"BSTAR":3.0341698e-5,"MEAN_MOTION_DOT":5.39e-6,"MEAN_MOTION_DDOT":0},{"OBJECT_NAME":"AIST-2 (RS43)","OBJECT_ID":"2013-015D","EPOCH":"2026-03-09T22:52:25.813056","MEAN_MOTION":15.25079544,"ECCENTRICITY":0.00239979,"INCLINATION":64.8687,"RA_OF_ASC_NODE":221.5348,"ARG_OF_PERICENTER":248.8384,"MEAN_ANOMALY":111.0181,"EPHEMERIS_TYPE":0,"CLASSIFICATION_TYPE":"U","NORAD_CAT_ID":39133,"ELEMENT_SET_NO":999,"REV_AT_EPOCH":70876,"BSTAR":0.00037899099,"MEAN_MOTION_DOT":9.402e-5,"MEAN_MOTION_DDOT":0}]
